COMMENT,ORIGINATOR,NORAD_CAT_ID,OBJECT_NAME,OBJECT_TYPE,CLASSIFICATION_TYPE,INTLDES,EPOCH,EPOCH_MICROSECONDS,MEAN_MOTION,ECCENTRICITY,INCLINATION,RA_OF_ASC_NODE,ARG_OF_PERICENTER,MEAN_ANOMALY,EPHEMERIS_TYPE,ELEMENT_SET_NO,REV_AT_EPOCH,BSTAR,MEAN_MOTION_DOT,MEAN_MOTION_DDOT,FILE,TLE_LINE0,TLE_LINE1,TLE_LINE2,OBJECT_ID,OBJECT_NUMBER,SEMIMAJOR_AXIS,PERIOD,APOGEE,PERIGEE,DECAYED
GENERATED VIA SPACETRACK.ORG API,18 SPCS,38704,TITAN 3C TRANSTAGE DEB,DEBRIS,U,68081AE,2024-03-15 05:24:15,662592,1.02195198,0.0210462,2.2112,62.1953,214.6737,144.3861,0,999,6758,0,0.00000008,0,4227250,0 TITAN 3C TRANSTAGE DEB,1 38704U 68081AE  24075.22518128  .00000008  00000-0  00000-0 0  9990,2 38704   2.2112  62.1953 0210462 214.6737 144.3861  1.02195198 67582,1968-081AE,38704,41634.004,1409.068,36132.107,34379.632,0
GENERATED VIA SPACETRACK.ORG API,18 SPCS,29162,EUTE 113 WEST A(SATMEX 6,PAYLOAD,U,06020A,2024-03-15 05:10:42,574656,1.00276945,0.0003219,0.2358,98.0102,263.3889,136.8803,0,999,6520,0,-0.0000005,0,4225746,0 EUTE 113 WEST A(SATMEX 6,1 29162U 06020A   24075.21577054 -.00000050  00000-0  00000+0 0  9992,2 29162   0.2358  98.0102 0003219 263.3889 136.8803  1.00276945 65200,2006-020A,29162,42163.285,1436.023,35798.723,35771.578,0
GENERATED VIA SPACETRACK.ORG API,18 SPCS,25001,TITAN 3C TRANSTAGE DEB,DEBRIS,U,68081H,2024-03-15 04:44:52,149984,1.01691927,0.0069649,1.0259,348.0964,39.2588,359.6061,0,999,10993,0,-0.00000041,0,4225979,0 TITAN 3C TRANSTAGE DEB,1 25001U 68081H   24075.19782581 -.00000041  00000-0  00000+0 0  9995,2 25001   1.0259 348.0964 0069649  39.2588 359.6061  1.01691927109938,1968-081H,25001,41771.255,1416.042,35684.053,35102.187,0
GENERATED VIA SPACETRACK.ORG API,18 SPCS,44307,YAMAL 601,PAYLOAD,U,19031A,2024-03-15 04:37:42,566592,1.00273983,0.0002368,0.0096,182.4085,170.1733,299.1163,0,999,1765,0,0.00000109,0,4225918,0 YAMAL 601,1 44307U 19031A   24075.19285378  .00000109  00000-0  00000+0 0  9992,2 44307   0.0096 182.4085 0002368 170.1733 299.1163  1.00273983 17657,2019-031A,44307,42164.116,1436.065,35795.965,35775.996,0
GENERATED VIA SPACETRACK.ORG API,18 SPCS,44479,AMOS 17,PAYLOAD,U,19050A,2024-03-15 04:08:54,266784,1.00273965,0.0001804,0.0173,136.7501,234.6398,241.0765,0,999,1691,0,0.00000099,0,4226145,0 AMOS 17,1 44479U 19050A   24075.17285031  .00000099  00000-0  00000+0 0  9995,2 44479   0.0173 136.7501 0001804 234.6398 241.0765  1.00273965 16917,2019-050A,44479,42164.121,1436.066,35793.592,35778.379,0
GENERATED VIA SPACETRACK.ORG API,18 SPCS,42915,TDRS 13,PAYLOAD,U,17047A,2024-03-15 04:00:45,548640,1.00271828,0.0014115,3.7194,342.6926,105.9791,133.2355,0,999,2411,0,-0.0000011,0,4225976,0 TDRS 13,1 42915U 17047A   24075.16719385 -.00000110  00000-0  00000+0 0  9990,2 42915   3.7194 342.6926 0014115 105.9791 133.2355  1.00271828 24112,2017-047A,42915,42164.720,1436.096,35846.100,35727.069,0
GENERATED VIA SPACETRACK.ORG API,18 SPCS,25967,UFO 10 (USA 146),PAYLOAD,U,99063A,2024-03-15 03:27:42,605568,1.0027444,0.0003228,9.4123,31.0378,283.5802,247.689,0,999,8908,0,-0.00000196,0,4227250,0 UFO 10 (USA 146),1 25967U 99063A   24075.14424312 -.00000196  00000-0  00000-0 0  9992,2 25967   9.4123  31.0378 0003228 283.5802 247.6890  1.00274440 89088,1999-063A,25967,42163.988,1436.059,35799.463,35772.242,0
GENERATED VIA SPACETRACK.ORG API,18 SPCS,41469,IRNSS 1G,PAYLOAD,U,16027A,2024-03-15 01:12:42,583968,1.00271371,0.0005252,3.2301,122.6973,297.4308,260.7192,0,999,2890,0,-0.00000345,0,4225843,0 IRNSS 1G,1 41469U 16027A   24075.05049287 -.00000345  00000-0  00000+0 0  9995,2 41469   3.2301 122.6973 0005252 297.4308 260.7192  1.00271371 28900,2016-027A,41469,42164.848,1436.103,35808.858,35764.568,0
GENERATED VIA SPACETRACK.ORG API,18 SPCS,29055,ASTRA 1KR,PAYLOAD,U,06012A,2024-03-14 23:45:42,620832,1.0027387,0.000274,0.0524,283.8752,14.7335,250.0653,0,999,6548,0,0.0000011,0,4225841,0 ASTRA 1KR,1 29055U 06012A   24074.99007663  .00000110  00000-0  00000+0 0  9998,2 29055   0.0524 283.8752 0002740  14.7335 250.0653  1.00273870 65487,2006-012A,29055,42164.147,1436.067,35797.565,35774.459,0
GENERATED VIA SPACETRACK.ORG API,18 SPCS,33436,ASTRA 1M,PAYLOAD,U,08057A,2024-03-14 23:45:42,620832,1.00269489,0.0001352,0.018,147.6896,243.6585,157.3723,0,999,5621,0,0.00000109,0,4225831,0 ASTRA 1M,1 33436U 08057A   24074.99007663  .00000109  00000-0  00000+0 0  9995,2 33436   0.0180 147.6896 0001352 243.6585 157.3723  1.00269489 56216,2008-057A,33436,42165.376,1436.130,35792.941,35781.540,0
GENERATED VIA SPACETRACK.ORG API,18 SPCS,44066,S5 DEB,DEBRIS,U,19009E,2024-03-14 22:58:14,365344,0.98984101,0.0004721,4.4644,80.6295,201.9343,158.291,0,999,1820,0,-0.00000095,0,4225780,0 S5 DEB,1 44066U 19009E   24074.95711071 -.00000095  00000-0  00000+0 0  9991,2 44066   4.4644  80.6295 0004721 201.9343 158.2910  0.98984101 18207,2019-009E,44066,42529.624,1454.779,36171.568,36131.411,0
GENERATED VIA SPACETRACK.ORG API,18 SPCS,44066,S5 DEB,DEBRIS,U,19009E,2024-03-14 22:58:14,143296,0.98984111,0.0004689,4.4644,80.6291,202.029,158.1963,0,999,1820,0,-0.00000094,0,4227250,0 S5 DEB,1 44066U 19009E   24074.95710814 -.00000094  00000-0  00000-0 0  9995,2 44066   4.4644  80.6291 0004689 202.0290 158.1963  0.98984111 18207,2019-009E,44066,42529.621,1454.779,36171.429,36131.544,0
GENERATED VIA SPACETRACK.ORG API,18 SPCS,25001,TITAN 3C TRANSTAGE DEB,DEBRIS,U,68081H,2024-03-14 21:51:52,464960,1.01691917,0.0069624,1.0261,348.0588,39.2694,254.6308,0,999,10993,0,-0.0000005,0,4225645,0 TITAN 3C TRANSTAGE DEB,1 25001U 68081H   24074.91102390 -.00000050  00000-0  00000-0 0  9999,2 25001   1.0261 348.0588 0069624  39.2694 254.6308  1.01691917109931,1968-081H,25001,41771.258,1416.042,35683.951,35102.294,0
GENERATED VIA SPACETRACK.ORG API,18 SPCS,41469,IRNSS 1G,PAYLOAD,U,16027A,2024-03-14 21:48:44,495712,1.00271437,0.0005253,3.2298,122.7036,297.3697,209.6425,0,999,2891,0,-0.00000345,0,4225645,0 IRNSS 1G,1 41469U 16027A   24074.90884833 -.00000345  00000-0  00000-0 0  9993,2 41469   3.2298 122.7036 0005253 297.3697 209.6425  1.00271437 28912,2016-027A,41469,42164.830,1436.102,35808.844,35764.545,0
GENERATED VIA SPACETRACK.ORG API,18 SPCS,33436,ASTRA 1M,PAYLOAD,U,08057A,2024-03-14 21:27:42,912288,1.00270358,0.0001342,0.0176,149.1686,240.3154,124.6436,0,999,3747,0,0.00000109,0,4225645,0 ASTRA 1M,1 33436U 08057A   24074.89424667  .00000109  00000-0  00000-0 0  9992,2 33436   0.0176 149.1686 0001342 240.3154 124.6436  1.00270358 37472,2008-057A,33436,42165.132,1436.117,35792.656,35781.338,0
GENERATED VIA SPACETRACK.ORG API,18 SPCS,44479,AMOS 17,PAYLOAD,U,19050A,2024-03-14 21:27:42,912288,1.00273777,0.0001805,0.018,136.2496,235.3523,140.2905,0,999,1692,0,0.00000099,0,4225645,0 AMOS 17,1 44479U 19050A   24074.89424667  .00000099  00000-0  00000-0 0  9994,2 44479   0.0180 136.2496 0001805 235.3523 140.2905  1.00273777 16920,2019-050A,44479,42164.174,1436.068,35793.649,35778.428,0
GENERATED VIA SPACETRACK.ORG API,18 SPCS,44307,YAMAL 601,PAYLOAD,U,19031A,2024-03-14 21:25:43,713984,1.00273783,0.0002359,0.0093,186.6233,166.5697,190.212,0,999,1765,0,0.00000109,0,4225645,0 YAMAL 601,1 44307U 19031A   24074.89286706  .00000109  00000-0  00000-0 0  9995,2 44307   0.0093 186.6233 0002359 166.5697 190.2120  1.00273783 17655,2019-031A,44307,42164.172,1436.068,35795.983,35776.090,0
GENERATED VIA SPACETRACK.ORG API,18 SPCS,41384,IRNSS 1F,PAYLOAD,U,16015A,2024-03-14 21:20:58,2144,1.00270689,0.0019563,3.3493,121.4245,190.6848,213.5511,0,999,2940,0,0.00000149,0,4225645,0 IRNSS 1F,1 41384U 16015A   24074.88956021  .00000149  00000-0  00000-0 0  9993,2 41384   3.3493 121.4245 0019563 190.6848 213.5511  1.00270689 29409,2016-015A,41384,42165.039,1436.113,35869.392,35704.417,0
GENERATED VIA SPACETRACK.ORG API,18 SPCS,42749,ECHOSTAR 21,PAYLOAD,U,17032A,2024-03-14 21:14:34,545120,1.00270331,0.000244,2.7024,317.8692,23.0162,160.9609,0,999,2484,0,0.00000054,0,4225645,0 ECHOSTAR 21,1 42749U 17032A   24074.88512205  .00000054  00000-0  00000-0 0  9996,2 42749   2.7024 317.8692 0002440  23.0162 160.9609  1.00270331 24849,2017-032A,42749,42165.140,1436.118,35797.293,35776.716,0
GENERATED VIA SPACETRACK.ORG API,18 SPCS,42915,TDRS 13,PAYLOAD,U,17047A,2024-03-14 21:08:26,126880,1.00271775,0.0014112,3.7196,342.6859,106.0093,29.8489,0,999,2408,0,-0.0000011,0,4225645,0 TDRS 13,1 42915U 17047A   24074.88085795 -.00000110  00000-0  00000-0 0  9990,2 42915   3.7196 342.6859 0014112 106.0093  29.8489  1.00271775 24088,2017-047A,42915,42164.735,1436.097,35846.103,35727.097,0
GENERATED VIA SPACETRACK.ORG API,18 SPCS,33373,NIMIQ 4,PAYLOAD,U,08044A,2024-03-14 20:48:08,587584,1.00270578,0.0001625,0.0248,243.4471,121.8186,37.6883,0,999,5671,0,-0.0000023,0,4225645,0 NIMIQ 4,1 33373U 08044A   24074.86676606 -.00000230  00000-0  00000-0 0  9993,2 33373   0.0248 243.4471 0001625 121.8186  37.6883  1.00270578 56715,2008-044A,33373,42165.070,1436.114,35793.787,35780.084,0
GENERATED VIA SPACETRACK.ORG API,18 SPCS,22988,USA 99,PAYLOAD,U,94009A,2024-03-14 20:45:53,250624,1.00270958,0.0002985,16.3642,36.435,307.3576,50.6327,0,999,2469,0,-0.00000206,0,4225645,0 USA 99,1 22988U 94009A   24074.86519966 -.00000206  00000-0  00000-0 0  9997,2 22988  16.3642  36.4350 0002985 307.3576  50.6327  1.00270958 24695,1994-009A,22988,42164.964,1436.109,35799.415,35774.243,0
GENERATED VIA SPACETRACK.ORG API,18 SPCS,22988,USA 99,PAYLOAD,U,94009A,2024-03-14 20:45:53,250624,1.00270958,0.0002985,16.3642,36.435,307.3576,50.6327,0,999,2338,0,-0.00000206,0,4225683,0 USA 99,1 22988U 94009A   24074.86519966 -.00000206  00000-0  00000+0 0  9996,2 22988  16.3642  36.4350 0002985 307.3576  50.6327  1.00270958 23380,1994-009A,22988,42164.964,1436.109,35799.415,35774.243,0
